start=new Date('2021-12-28T00:00:00.000Z').valueOf();
sats=[{"ARG_OF_PERICENTER":"86.9604","MEAN_MOTION_DDOT":"0.0000000000000","RCS_SIZE":"LARGE","ECCENTRICITY":"0.00023310","TIME_SYSTEM":"UTC","BSTAR":"0.00002040200000","EPOCH":"2021-12-27T20:02:42.693504","PERIAPSIS":"545.605","OBJECT_TYPE":"PAYLOAD","NORAD_CAT_ID":"46040","SEMIMAJOR_AXIS":"6925.355","MEAN_ANOMALY":"273.1651","CENTER_NAME":"EARTH","COUNTRY_CODE":"US","INCLINATION":"53.0535","EPHEMERIS_TYPE":"0","APOAPSIS":"548.834","REV_AT_EPOCH":"7781","TLE_LINE1":"1 46040U 20055P   21361.83521636  .00000022  00000-0  20402-4 0  9999","RA_OF_ASC_NODE":"167.8830","OBJECT_ID":"2020-055P","MEAN_MOTION":"15.06397991","OBJECT_NAME":"STARLINK-1576","MEAN_ELEMENT_THEORY":"SGP4","DECAY_DATE":null,"REF_FRAME":"TEME","FILE":"3253114","MEAN_MOTION_DOT":"0.00000022","TLE_LINE2":"2 46040  53.0535 167.8830 0002331  86.9604 273.1651 15.06397991 77810","CLASSIFICATION_TYPE":"U","PERIOD":"95.592","ELEMENT_SET_NO":"999","SITE":"AFETR","GP_ID":"192602337","LAUNCH_DATE":"2020-08-07"},{"FILE":"3253114","MEAN_ELEMENT_THEORY":"SGP4","DECAY_DATE":null,"REF_FRAME":"TEME","TLE_LINE2":"2 46041  53.0545 167.5730 0002222  87.3708 272.7536 15.06389399 77839","MEAN_MOTION_DOT":"0.00001137","SITE":"AFETR","ELEMENT_SET_NO":"999","CLASSIFICATION_TYPE":"U","PERIOD":"95.593","GP_ID":"192603085","LAUNCH_DATE":"2020-08-07","ARG_OF_PERICENTER":"87.3708","MEAN_MOTION_DDOT":"0.0000000000000","BSTAR":"0.00009524100000","TIME_SYSTEM":"UTC","RCS_SIZE":"LARGE","ECCENTRICITY":"0.00022220","PERIAPSIS":"545.707","OBJECT_TYPE":"PAYLOAD","EPOCH":"2021-12-27T21:42:12.608640","SEMIMAJOR_AXIS":"6925.381","NORAD_CAT_ID":"46041","MEAN_ANOMALY":"272.7536","APOAPSIS":"548.785","EPHEMERIS_TYPE":"0","COUNTRY_CODE":"US","CENTER_NAME":"EARTH","INCLINATION":"53.0545","TLE_LINE1":"1 46041U 20055Q   21361.90431260  .00001137  00000-0  95241-4 0  9992","REV_AT_EPOCH":"7783","RA_OF_ASC_NODE":"167.5730","MEAN_MOTION":"15.06389399","OBJECT_ID":"2020-055Q","OBJECT_NAME":"STARLINK-1580"},{"FILE":"3253114","MEAN_ELEMENT_THEORY":"SGP4","DECAY_DATE":null,"REF_FRAME":"TEME","SITE":"AFETR","ELEMENT_SET_NO":"999","CLASSIFICATION_TYPE":"U","PERIOD":"95.592","TLE_LINE2":"2 46042  53.0544 167.6481 0002368  91.2790 268.8470 15.06399665 77828","MEAN_MOTION_DOT":"-0.00000358","LAUNCH_DATE":"2020-08-07","GP_ID":"192601341","BSTAR":"-0.00000510710000","TIME_SYSTEM":"UTC","RCS_SIZE":"LARGE","ECCENTRICITY":"0.00023680","MEAN_MOTION_DDOT":"0.0000000000000","ARG_OF_PERICENTER":"91.2790","SEMIMAJOR_AXIS":"6925.350","MEAN_ANOMALY":"268.8470","NORAD_CAT_ID":"46042","PERIAPSIS":"545.575","OBJECT_TYPE":"PAYLOAD","EPOCH":"2021-12-27T21:17:01.025088","TLE_LINE1":"1 46042U 20055R   21361.88681742 -.00000358  00000-0 -51071-5 0  9992","REV_AT_EPOCH":"7782","RA_OF_ASC_NODE":"167.6481","APOAPSIS":"548.855","EPHEMERIS_TYPE":"0","CENTER_NAME":"EARTH","COUNTRY_CODE":"US","INCLINATION":"53.0544","OBJECT_NAME":"STARLINK-1581","OBJECT_ID":"2020-055R","MEAN_MOTION":"15.06399665"},{"FILE":"3253114","REF_FRAME":"TEME","MEAN_ELEMENT_THEORY":"SGP4","DECAY_DATE":null,"TLE_LINE2":"2 46043  53.0543 167.6803 0002401  92.0110 268.1154 15.06401979 77856","MEAN_MOTION_DOT":"0.00002036","ELEMENT_SET_NO":"999","SITE":"AFETR","CLASSIFICATION_TYPE":"U","PERIOD":"95.592","GP_ID":"192601589","LAUNCH_DATE":"2020-08-07","MEAN_MOTION_DDOT":"0.0000000000000","ARG_OF_PERICENTER":"92.0110","BSTAR":"0.00015554000000","TIME_SYSTEM":"UTC","ECCENTRICITY":"0.00024010","RCS_SIZE":"LARGE","OBJECT_TYPE":"PAYLOAD","PERIAPSIS":"545.545","EPOCH":"2021-12-27T21:06:25.977312","SEMIMAJOR_AXIS":"6925.342","NORAD_CAT_ID":"46043","MEAN_ANOMALY":"268.1154","APOAPSIS":"548.870","EPHEMERIS_TYPE":"0","INCLINATION":"53.0543","COUNTRY_CODE":"US","CENTER_NAME":"EARTH","RA_OF_ASC_NODE":"167.6803","TLE_LINE1":"1 46043U 20055S   21361.87946733  .00002036  00000-0  15554-3 0  9993","REV_AT_EPOCH":"7785","MEAN_MOTION":"15.06401979","OBJECT_ID":"2020-055S","OBJECT_NAME":"STARLINK-1582"},{"BSTAR":"0.00012744000000","TIME_SYSTEM":"UTC","RCS_SIZE":"LARGE","ECCENTRICITY":"0.00025540","MEAN_MOTION_DDOT":"0.0000000000000","ARG_OF_PERICENTER":"88.2053","SEMIMAJOR_AXIS":"6925.333","MEAN_ANOMALY":"271.9228","NORAD_CAT_ID":"46044","OBJECT_TYPE":"PAYLOAD","PERIAPSIS":"545.429","EPOCH":"2021-12-27T21:27:39.037248","RA_OF_ASC_NODE":"167.6023","TLE_LINE1":"1 46044U 20055T   21361.89420182  .00001617  00000-0  12744-3 0  9993","REV_AT_EPOCH":"7786","EPHEMERIS_TYPE":"0","APOAPSIS":"548.966","CENTER_NAME":"EARTH","COUNTRY_CODE":"US","INCLINATION":"53.0536","OBJECT_NAME":"STARLINK-1584","OBJECT_ID":"2020-055T","MEAN_MOTION":"15.06405169","FILE":"3253114","MEAN_ELEMENT_THEORY":"SGP4","DECAY_DATE":null,"REF_FRAME":"TEME","ELEMENT_SET_NO":"999","SITE":"AFETR","CLASSIFICATION_TYPE":"U","PERIOD":"95.592","TLE_LINE2":"2 46044  53.0536 167.6023 0002554  88.2053 271.9228 15.06405169 77865","MEAN_MOTION_DOT":"0.00001617","LAUNCH_DATE":"2020-08-07","GP_ID":"192602838"},{"ECCENTRICITY":"0.00026040","RCS_SIZE":"LARGE","TIME_SYSTEM":"UTC","BSTAR":"0.00013044000000","ARG_OF_PERICENTER":"90.0155","MEAN_MOTION_DDOT":"0.0000000000000","NORAD_CAT_ID":"46045","SEMIMAJOR_AXIS":"6925.342","MEAN_ANOMALY":"270.1133","EPOCH":"2021-12-27T18:32:28.479840","PERIAPSIS":"545.404","OBJECT_TYPE":"PAYLOAD","REV_AT_EPOCH":"7782","TLE_LINE1":"1 46045U 20055U   21361.77255185  .00001662  00000-0  13044-3 0  9994","RA_OF_ASC_NODE":"168.1527","INCLINATION":"53.0531","COUNTRY_CODE":"US","CENTER_NAME":"EARTH","EPHEMERIS_TYPE":"0","APOAPSIS":"549.011","OBJECT_NAME":"STARLINK-1591","MEAN_MOTION":"15.06402060","OBJECT_ID":"2020-055U","REF_FRAME":"TEME","MEAN_ELEMENT_THEORY":"SGP4","DECAY_DATE":null,"FILE":"3253114","PERIOD":"95.592","CLASSIFICATION_TYPE":"U","SITE":"AFETR","ELEMENT_SET_NO":"999","MEAN_MOTION_DOT":"0.00001662","TLE_LINE2":"2 46045  53.0531 168.1527 0002604  90.0155 270.1133 15.06402060 77825","LAUNCH_DATE":"2020-08-07","GP_ID":"192602585"},{"DECAY_DATE":null,"MEAN_ELEMENT_THEORY":"SGP4","REF_FRAME":"TEME","FILE":"3253114","LAUNCH_DATE":"2020-08-07","GP_ID":"192601842","PERIOD":"92.459","CLASSIFICATION_TYPE":"U","SITE":"AFETR","ELEMENT_SET_NO":"999","MEAN_MOTION_DOT":"0.00033528","TLE_LINE2":"2 46046  53.0545 127.3353 0003016   1.6122 358.4899 15.57444193 78385","NORAD_CAT_ID":"46046","SEMIMAJOR_AXIS":"6773.194","MEAN_ANOMALY":"358.4899","EPOCH":"2021-12-27T17:14:12.998400","PERIAPSIS":"393.016","OBJECT_TYPE":"PAYLOAD","RCS_SIZE":"LARGE","ECCENTRICITY":"0.00030160","BSTAR":"0.00045336000000","TIME_SYSTEM":"UTC","ARG_OF_PERICENTER":"1.6122","MEAN_MOTION_DDOT":"0.0000000000000","OBJECT_NAME":"STARLINK-1514","OBJECT_ID":"2020-055V","MEAN_MOTION":"15.57444193","TLE_LINE1":"1 46046U 20055V   21361.71820600  .00033528  00000-0  45336-3 0  9994","REV_AT_EPOCH":"7838","RA_OF_ASC_NODE":"127.3353","CENTER_NAME":"EARTH","COUNTRY_CODE":"US","INCLINATION":"53.0545","APOAPSIS":"397.102","EPHEMERIS_TYPE":"0"},{"MEAN_ANOMALY":"266.2534","SEMIMAJOR_AXIS":"6925.392","NORAD_CAT_ID":"46047","EPOCH":"2021-12-27T20:35:53.338272","OBJECT_TYPE":"PAYLOAD","PERIAPSIS":"545.405","RCS_SIZE":"LARGE","ECCENTRICITY":"0.00026750","BSTAR":"0.00033369000000","TIME_SYSTEM":"UTC","ARG_OF_PERICENTER":"93.8761","MEAN_MOTION_DDOT":"0.0000000000000","OBJECT_NAME":"STARLINK-1524","MEAN_MOTION":"15.06385670","OBJECT_ID":"2020-055W","REV_AT_EPOCH":"7799","TLE_LINE1":"1 46047U 20055W   21361.85825623  .00004690  00000-0  33369-3 0  9991","RA_OF_ASC_NODE":"157.7789","COUNTRY_CODE":"US","CENTER_NAME":"EARTH","INCLINATION":"53.0543","EPHEMERIS_TYPE":"0","APOAPSIS":"549.110","DECAY_DATE":null,"MEAN_ELEMENT_THEORY":"SGP4","REF_FRAME":"TEME","FILE":"3253114","LAUNCH_DATE":"2020-08-07","GP_ID":"192602090","CLASSIFICATION_TYPE":"U","PERIOD":"95.593","ELEMENT_SET_NO":"999","SITE":"AFETR","MEAN_MOTION_DOT":"0.00004690","TLE_LINE2":"2 46047  53.0543 157.7789 0002675  93.8761 266.2534 15.06385670 77992"},{"REF_FRAME":"TEME","MEAN_ELEMENT_THEORY":"SGP4","DECAY_DATE":null,"FILE":"3253114","CLASSIFICATION_TYPE":"U","PERIOD":"95.592","ELEMENT_SET_NO":"999","SITE":"AFETR","MEAN_MOTION_DOT":"0.00001794","TLE_LINE2":"2 46048  53.0548 158.3734 0002301  94.5377 265.5875 15.06397408 77950","LAUNCH_DATE":"2020-08-07","GP_ID":"192602338","ECCENTRICITY":"0.00023010","RCS_SIZE":"LARGE","BSTAR":"0.00013932000000","TIME_SYSTEM":"UTC","ARG_OF_PERICENTER":"94.5377","MEAN_MOTION_DDOT":"0.0000000000000","MEAN_ANOMALY":"265.5875","SEMIMAJOR_AXIS":"6925.357","NORAD_CAT_ID":"46048","EPOCH":"2021-12-27T17:19:29.916192","PERIAPSIS":"545.628","OBJECT_TYPE":"PAYLOAD","RA_OF_ASC_NODE":"158.3734","TLE_LINE1":"1 46048U 20055X   21361.72187403  .00001794  00000-0  13932-3 0  9991","REV_AT_EPOCH":"7795","INCLINATION":"53.0548","COUNTRY_CODE":"US","CENTER_NAME":"EARTH","APOAPSIS":"548.815","EPHEMERIS_TYPE":"0","OBJECT_NAME":"STARLINK-1527","OBJECT_ID":"2020-055X","MEAN_MOTION":"15.06397408"},{"REF_FRAME":"TEME","MEAN_ELEMENT_THEORY":"SGP4","DECAY_DATE":null,"FILE":"3253114","MEAN_MOTION_DOT":"0.00000098","TLE_LINE2":"2 46049  53.0539 157.8051 0002163  86.9379 273.1857 15.06397655 78006","PERIOD":"95.592","CLASSIFICATION_TYPE":"U","SITE":"AFETR","ELEMENT_SET_NO":"999","GP_ID":"192603086","LAUNCH_DATE":"2020-08-07","MEAN_MOTION_DDOT":"0.0000000000000","ARG_OF_PERICENTER":"86.9379","ECCENTRICITY":"0.00021630","RCS_SIZE":"LARGE","BSTAR":"0.00002548200000","TIME_SYSTEM":"UTC","EPOCH":"2021-12-27T20:25:16.984128","PERIAPSIS":"545.723","OBJECT_TYPE":"PAYLOAD","NORAD_CAT_ID":"46049","SEMIMAJOR_AXIS":"6925.356","MEAN_ANOMALY":"273.1857","INCLINATION":"53.0539","COUNTRY_CODE":"US","CENTER_NAME":"EARTH","APOAPSIS":"548.719","EPHEMERIS_TYPE":"0","RA_OF_ASC_NODE":"157.8051","TLE_LINE1":"1 46049U 20055Y   21361.85089102  .00000098  00000-0  25482-4 0  9993","REV_AT_EPOCH":"7800","OBJECT_ID":"2020-055Y","MEAN_MOTION":"15.06397655","OBJECT_NAME":"STARLINK-1530"}];
